{"type": "FeatureCollection", "features": [ {"type": "Feature", "properties": {"norad_id": 43683, "name": "BEIDOU-3 G1 (C59)", "group": "gnss", "lat": 0.7135495687520752, "lon": 119.11724077078684, "alt_km": 35779.22523480421, "timestamp": "2025-12-02T17:49:12.270926+00:00", "meta": {"OBJECT_NAME": "BEIDOU-3 G1 (C59)", "OBJECT_ID": "2018-085A", "EPOCH": "2025-12-02T07:36:08.057952", "MEAN_MOTION": 1.00274107, "ECCENTRICITY": 0.0002114, "INCLINATION": 2.5793, "RA_OF_ASC_NODE": 103.2849, "ARG_OF_PERICENTER": 61.7211, "MEAN_ANOMALY": 160.4779, "EPHEMERIS_TYPE": 0, "CLASSIFICATION_TYPE": "U", "NORAD_CAT_ID": 43683, "ELEMENT_SET_NO": 999, "REV_AT_EPOCH": 2608, "BSTAR": 0, "MEAN_MOTION_DOT": -2.56e-06, "MEAN_MOTION_DDOT": 0}, "tle": {"line1": "1 43683U 18085A   25336.31675993 -.00000256  00000+0  00000+0 0  9990", "line2": "2 43683   2.5793 103.2849 0002114  61.7211 160.4779  1.00274107 26087"}}, "geometry": {"type": "Point", "coordinates": [119.11724077078684, 0.7135495687520752]}}, {"type": "Feature", "properties": {"norad_id": 43687, "name": "COSMOS 2529 (757)", "group": "gnss", "lat": 36.58126748098603, "lon": -1.7108191141522961, "alt_km": 19133.822907418555, "timestamp": "2025-12-02T17:49:12.270943+00:00", "meta": {"OBJECT_NAME": "COSMOS 2529 (757)", "OBJECT_ID": "2018-086A", "EPOCH": "2025-12-02T02:13:08.231232", "MEAN_MOTION": 2.13101888, "ECCENTRICITY": 0.0007319, "INCLINATION": 64.2916, "RA_OF_ASC_NODE": 199.2482, "ARG_OF_PERICENTER": 254.4922, "MEAN_ANOMALY": 105.5219, "EPHEMERIS_TYPE": 0, "CLASSIFICATION_TYPE": "U", "NORAD_CAT_ID": 43687, "ELEMENT_SET_NO": 999, "REV_AT_EPOCH": 5508, "BSTAR": 0, "MEAN_MOTION_DOT": 1.05e-06, "MEAN_MOTION_DDOT": 0}, "tle": {"line1": "1 43687U 18086A   25336.09245638  .00000105  00000+0  00000+0 0  9991", "line2": "2 43687  64.2916 199.2482 0007319 254.4922 105.5219  2.13101888 55084"}}, "geometry": {"type": "Point", "coordinates": [-1.7108191141522961, 36.58126748098603]}}, {"type": "Feature", "properties": {"norad_id": 43706, "name": "BEIDOU-3 M17 (C36)", "group": "gnss", "lat": -22.426428173405267, "lon": 171.625657048076, "alt_km": 21515.34158327804, "timestamp": "2025-12-02T17:49:12.270960+00:00", "meta": {"OBJECT_NAME": "BEIDOU-3 M17 (C36)", "OBJECT_ID": "2018-093A", "EPOCH": "2025-11-30T05:23:59.265600", "MEAN_MOTION": 1.86228182, "ECCENTRICITY": 0.00063751, "INCLINATION": 54.1727, "RA_OF_ASC_NODE": 189.0472, "ARG_OF_PERICENTER": 306.0351, "MEAN_ANOMALY": 138.1008, "EPHEMERIS_TYPE": 0, "CLASSIFICATION_TYPE": "U", "NORAD_CAT_ID": 43706, "ELEMENT_SET_NO": 999, "REV_AT_EPOCH": 4783, "BSTAR": 0, "MEAN_MOTION_DOT": 1.11e-06, "MEAN_MOTION_DDOT": 0}, "tle": {"line1": "1 43706U 18093A   25334.22499150  .00000111  00000+0  00000+0 0  9991", "line2": "2 43706  54.1727 189.0472 0006375 306.0351 138.1008  1.86228182 47839"}}, "geometry": {"type": "Point", "coordinates": [171.625657048076, -22.426428173405267]}}, {"type": "Feature", "properties": {"norad_id": 43707, "name": "BEIDOU-3 M18 (C37)", "group": "gnss", "lat": 47.2450254680726, "lon": -119.65953832137158, "alt_km": 21517.94232956384, "timestamp": "2025-12-02T17:49:12.270980+00:00", "meta": {"OBJECT_NAME": "BEIDOU-3 M18 (C37)", "OBJECT_ID": "2018-093B", "EPOCH": "2025-12-02T02:36:40.524768", "MEAN_MOTION": 1.86226401, "ECCENTRICITY": 0.0006357, "INCLINATION": 54.1734, "RA_OF_ASC_NODE": 188.975, "ARG_OF_PERICENTER": 350.835, "MEAN_ANOMALY": 9.249, "EPHEMERIS_TYPE": 0, "CLASSIFICATION_TYPE": "U", "NORAD_CAT_ID": 43707, "ELEMENT_SET_NO": 999, "REV_AT_EPOCH": 4786, "BSTAR": 0, "MEAN_MOTION_DOT": 1.21e-06, "MEAN_MOTION_DDOT": 0}, "tle": {"line1": "1 43707U 18093B   25336.10880237  .00000121  00000+0  00000+0 0  9992", "line2": "2 43707  54.1734 188.9750 0006357 350.8350   9.2490  1.86226401 47869"}}, "geometry": {"type": "Point", "coordinates": [-119.65953832137158, 47.2450254680726]}}, {"type": "Feature", "properties": {"norad_id": 43873, "name": "GPS BIII-1  (PRN 04)", "group": "gnss", "lat": 42.536193347164726, "lon": -119.05834904090452, "alt_km": 20143.029576095025, "timestamp": "2025-12-02T17:49:12.271002+00:00", "meta": {"OBJECT_NAME": "GPS BIII-1  (PRN 04)", "OBJECT_ID": "2018-109A", "EPOCH": "2025-12-01T14:03:36.800640", "MEAN_MOTION": 2.00553137, "ECCENTRICITY": 0.00371823, "INCLINATION": 55.5605, "RA_OF_ASC_NODE": 99.9877, "ARG_OF_PERICENTER": 194.4831, "MEAN_ANOMALY": 175.6663, "EPHEMERIS_TYPE": 0, "CLASSIFICATION_TYPE": "U", "NORAD_CAT_ID": 43873, "ELEMENT_SET_NO": 999, "REV_AT_EPOCH": 5111, "BSTAR": 0, "MEAN_MOTION_DOT": 2.2e-07, "MEAN_MOTION_DDOT": 0}, "tle": {"line1": "1 43873U 18109A   25335.58584260  .00000022  00000+0  00000+0 0  9992", "line2": "2 43873  55.5605  99.9877 0037182 194.4831 175.6663  2.00553137 51111"}}, "geometry": {"type": "Point", "coordinates": [-119.05834904090452, 42.536193347164726]}}, {"type": "Feature", "properties": {"norad_id": 44204, "name": "BEIDOU-3 IGSO-1 (C38)", "group": "gnss", "lat": 43.22079674452315, "lon": 74.95062893656456, "alt_km": 35899.71664887106, "timestamp": "2025-12-02T17:49:12.271020+00:00", "meta": {"OBJECT_NAME": "BEIDOU-3 IGSO-1 (C38)", "OBJECT_ID": "2019-023A", "EPOCH": "2025-11-19T14:15:02.708640", "MEAN_MOTION": 1.00252177, "ECCENTRICITY": 0.0026966, "INCLINATION": 58.4003, "RA_OF_ASC_NODE": 39.8168, "ARG_OF_PERICENTER": 221.2202, "MEAN_ANOMALY": 126.9723, "EPHEMERIS_TYPE": 0, "CLASSIFICATION_TYPE": "U", "NORAD_CAT_ID": 44204, "ELEMENT_SET_NO": 999, "REV_AT_EPOCH": 510, "BSTAR": 0, "MEAN_MOTION_DOT": -2.26e-06, "MEAN_MOTION_DDOT": 0}, "tle": {"line1": "1 44204U 19023A   25323.59378135 -.00000226  00000+0  00000+0 0  9994", "line2": "2 44204  58.4003  39.8168 0026966 221.2202 126.9723  1.00252177  5102"}}, "geometry": {"type": "Point", "coordinates": [74.95062893656456, 43.22079674452315]}}, {"type": "Feature", "properties": {"norad_id": 44231, "name": "BEIDOU-2 G8 (C01)", "group": "gnss", "lat": 1.2397273239344186, "lon": 123.72234650001623, "alt_km": 35817.40284893021, "timestamp": "2025-12-02T17:49:12.271043+00:00", "meta": {"OBJECT_NAME": "BEIDOU-2 G8 (C01)", "OBJECT_ID": "2019-027A", "EPOCH": "2025-12-02T11:21:38.666880", "MEAN_MOTION": 1.002705, "ECCENTRICITY": 0.0008241, "INCLINATION": 1.6338, "RA_OF_ASC_NODE": 74.6927, "ARG_OF_PERICENTER": 254.9742, "MEAN_ANOMALY": 56.8972, "EPHEMERIS_TYPE": 0, "CLASSIFICATION_TYPE": "U", "NORAD_CAT_ID": 44231, "ELEMENT_SET_NO": 999, "REV_AT_EPOCH": 2410, "BSTAR": 0, "MEAN_MOTION_DOT": -2.27e-06, "MEAN_MOTION_DDOT": 0}, "tle": {"line1": "1 44231U 19027A   25336.47336420 -.00000227  00000+0  00000+0 0  9991", "line2": "2 44231   1.6338  74.6927 0008241 254.9742  56.8972  1.00270500 24109"}}, "geometry": {"type": "Point", "coordinates": [123.72234650001623, 1.2397273239344186]}}, {"type": "Feature", "properties": {"norad_id": 44299, "name": "COSMOS 2534 (758)", "group": "gnss", "lat": -64.19403197812764, "lon": 116.22408392663726, "alt_km": 19113.622121517543, "timestamp": "2025-12-02T17:49:12.271060+00:00", "meta": {"OBJECT_NAME": "COSMOS 2534 (758)", "OBJECT_ID": "2019-030A", "EPOCH": "2025-12-01T03:07:57.438624", "MEAN_MOTION": 2.1310195, "ECCENTRICITY": 0.00091167, "INCLINATION": 64.3652, "RA_OF_ASC_NODE": 199.2842, "ARG_OF_PERICENTER": 283.4428, "MEAN_ANOMALY": 193.0266, "EPHEMERIS_TYPE": 0, "CLASSIFICATION_TYPE": "U", "NORAD_CAT_ID": 44299, "ELEMENT_SET_NO": 999, "REV_AT_EPOCH": 5070, "BSTAR": 0, "MEAN_MOTION_DOT": 9.9e-07, "MEAN_MOTION_DDOT": 0}, "tle": {"line1": "1 44299U 19030A   25335.13052591  .00000099  00000+0  00000+0 0  9991", "line2": "2 44299  64.3652 199.2842 0009116 283.4428 193.0266  2.13101950 50700"}}, "geometry": {"type": "Point", "coordinates": [116.22408392663726, -64.19403197812764]}}, {"type": "Feature", "properties": {"norad_id": 44337, "name": "BEIDOU-3 IGSO-2 (C39)", "group": "gnss", "lat": -46.180204245384175, "lon": 114.09171037183008, "alt_km": 35807.48975926332, "timestamp": "2025-12-02T17:49:12.271078+00:00", "meta": {"OBJECT_NAME": "BEIDOU-3 IGSO-2 (C39)", "OBJECT_ID": "2019-035A", "EPOCH": "2025-12-01T05:17:49.661952", "MEAN_MOTION": 1.00274502, "ECCENTRICITY": 0.00376064, "INCLINATION": 55.2223, "RA_OF_ASC_NODE": 160.6035, "ARG_OF_PERICENTER": 202.2564, "MEAN_ANOMALY": 266.4761, "EPHEMERIS_TYPE": 0, "CLASSIFICATION_TYPE": "U", "NORAD_CAT_ID": 44337, "ELEMENT_SET_NO": 999, "REV_AT_EPOCH": 2368, "BSTAR": 0, "MEAN_MOTION_DOT": -2.5e-07, "MEAN_MOTION_DDOT": 0}, "tle": {"line1": "1 44337U 19035A   25335.22071368 -.00000025  00000+0  00000+0 0  9992", "line2": "2 44337  55.2223 160.6035 0037606 202.2564 266.4761  1.00274502 23688"}}, "geometry": {"type": "Point", "coordinates": [114.09171037183008, -46.180204245384175]}}, {"type": "Feature", "properties": {"norad_id": 44506, "name": "GPS BIII-2  (PRN 18)", "group": "gnss", "lat": 17.83515238913187, "lon": -8.373284223088493, "alt_km": 20333.070311182822, "timestamp": "2025-12-02T17:49:12.271097+00:00", "meta": {"OBJECT_NAME": "GPS BIII-2  (PRN 18)", "OBJECT_ID": "2019-056A", "EPOCH": "2025-12-02T10:49:28.763904", "MEAN_MOTION": 2.00565569, "ECCENTRICITY": 0.0057816, "INCLINATION": 55.7251, "RA_OF_ASC_NODE": 338.9617, "ARG_OF_PERICENTER": 198.402, "MEAN_ANOMALY": 332.9603, "EPHEMERIS_TYPE": 0, "CLASSIFICATION_TYPE": "U", "NORAD_CAT_ID": 44506, "ELEMENT_SET_NO": 999, "REV_AT_EPOCH": 4612, "BSTAR": 0, "MEAN_MOTION_DOT": -6.1e-07, "MEAN_MOTION_DDOT": 0}, "tle": {"line1": "1 44506U 19056A   25336.45102736 -.00000061  00000+0  00000+0 0  9993", "line2": "2 44506  55.7251 338.9617 0057816 198.4020 332.9603  2.00565569 46121"}}, "geometry": {"type": "Point", "coordinates": [-8.373284223088493, 17.83515238913187]}}]}